AEROCUBE 12A            
1 43556U 18046C   19239.92384395  .00000208  00000-0  19932-4 0  9997
2 43556  51.6422  79.7240 0007956 325.9515  34.0953 15.28847154 62301
AEROCUBE 12B            
1 43557U 18046D   19240.53193590  .00000075  00000-0  15301-4 0  9990
2 43557  51.6430  77.0287 0008081 327.8378  32.2108 15.28707202 62346
UITMSAT-1               
1 43589U 98067PD  19239.70783200  .00013049  00000-0  14569-3 0  9995
2 43589  51.6369 349.3714 0005514  55.1746 304.9766 15.63140428 59693
MAYA-1                  
1 43590U 98067PE  19240.53319139  .00011878  00000-0  13296-3 0  9990
2 43590  51.6375 345.1391 0005611  58.7017 301.4526 15.63177933 59759
BHUTAN-1                
1 43591U 98067PF  19240.52124169  .00011734  00000-0  13112-3 0  9995
2 43591  51.6384 345.0871 0005789  58.9485 301.2078 15.63236365 59754
SIRIUSSAT-1             
1 43595U 98067PG  19240.16203187  .00011591  00000-0  13423-3 0  9993
2 43595  51.6371 348.6605 0003691  19.2507 340.8626 15.62331212 58857
SIRIUSSAT-2             
1 43596U 98067PH  19240.51951053  .00011024  00000-0  12875-3 0  9996
2 43596  51.6384 347.3402 0004219  20.3074 339.8087 15.62170627 58908
TANUSHA-3               
1 43597U 98067PJ  19240.12072297  .00016301  00000-0  17410-3 0  9991
2 43597  51.6366 346.8533 0003830  30.7841 329.3378 15.64069476 58877
SURFSAT                 
1 43614U 18070B   19240.20981971  .00001628  00000-0  43940-4 0  9998
2 43614  93.0271  32.7611 0017570  41.4410 318.8172 15.37748764 53242
CP7 (DAVE)              
1 43615U 18070C   19239.43848939  .00001585  00000-0  42913-4 0  9999
2 43615  93.0271  32.4420 0017820  43.5944 316.6713 15.37654138 53126
ELFIN-B                 
1 43616U 18070D   19240.13191207  .00002574  00000-0  67950-4 0  9995
2 43616  93.0232  32.6370 0018562  44.2969 315.9766 15.38368814 53246
ELFIN-A                 
1 43617U 18070E   19240.44888789  .00002663  00000-0  70209-4 0  9998
2 43617  93.0288  33.0381 0017579  40.6022 319.6539 15.38425248 53291
CUBEBEL-1 (BSUSAT-1)    
1 43666U 18083E   19240.43513039  .00000413  00000-0  23865-4 0  9995
2 43666  97.5175 264.4234 0013688 306.5719 150.8435 15.17675816 46017
DEBRISSAT-2             
1 43680U 98067PR  19240.50733897  .00019414  00000-0  19647-3 0  9998
2 43680  51.6375 344.2297 0003544  43.7263 316.4012 15.65297900 67679
CICERO 10               
1 43690U 18088A   19240.14869243  .00000532  00000-0  22979-4 0  9993
2 43690  85.0354 272.1227 0013309 316.2293  43.7892 15.19736571 44033
IRVINE01                
1 43693U 18088D   19240.12017268  .00001488  00000-0  64050-4 0  9993
2 43693  85.0331 271.6008 0016090 297.7876  62.1734 15.21575566 44074
PROXIMA I               
1 43694U 18088E   19240.21245247  .00000586  00000-0  24195-4 0  9998
2 43694  85.0297 271.3489 0017138 287.3905  72.5462 15.21460276 44094
PROXIMA II              
1 43696U 18088G   19239.81674503  .00000596  00000-0  24629-4 0  9998
2 43696  85.0298 271.6118 0017190 288.9805  70.9573 15.21464664 44037
FACSAT-1                
1 43721U 18096C   19240.47211836  .00000879  00000-0  36449-4 0  9993
2 43721  97.4551 310.2104 0019623  81.6921 278.6541 15.26424999 41536
CENTAURI-2              
1 43722U 18096D   19240.17983865  .00001275  00000-0  51193-4 0  9993
2 43722  97.4552 309.9901 0019766  83.0575 277.2911 15.26671074 41485
INNOSAT-2               
1 43738U 18096V   19240.46893337  .00001769  00000-0  65198-4 0  9994
2 43738  97.4558 311.1381 0026091  92.0151 268.4077 15.28875412 41595
SIRION PATHFINDER-2     
1 43759U 18099B   19240.45848220 -.00000064  00000-0 -58191-6 0  9996
2 43759  97.7405 311.5608 0015778  85.5672 274.7351 14.95149958 39991
CORVUS-BC 4             
1 43767U 18099K   19239.82141675  .00000338  00000-0  36466-4 0  9995
2 43767  97.7394 310.6549 0013423  90.5340 269.7419 14.94594667 39892
MOVE-II                 
1 43780U 18099Y   19239.74302247  .00000652  00000-0  64623-4 0  9990
2 43780  97.7401 310.7628 0015218  98.5640 261.7306 14.95102489 39873
SPACEBEE-7              
1 43816U 18099BL  19239.74473251  .00000637  00000-0  62707-4 0  9998
2 43816  97.7416 310.9619 0015043  85.1087 275.1851 14.95447017 39440
SPACEBEE-5              
1 43817U 18099BM  19240.18720184  .00000307  00000-0  32716-4 0  9990
2 43817  97.7438 311.5027 0014717  84.4800 275.8099 14.95723820 39515
SPACEBEE-6              
1 43818U 18099BN  19240.33811408  .00000590  00000-0  58392-4 0  9990
2 43818  97.7420 311.5815 0014926  83.4546 276.8374 14.95535858 39687
SHIELDS 1               
1 43850U 18104B   19240.36654353  .00000042  00000-0  00000+0 0  9990
2 43850  85.0291   9.7345 0017426  72.9533 287.3649 15.21122387 38769
STF-1                   
1 43852U 18104D   19239.60343643  .00000042  00000-0  00000-0 0  9995
2 43852  85.0368  10.5388 0017150  87.4805 272.8401 15.20692425 38635
ZACUBE-2                
1 43907U 18111AH  19240.51226931  .00000304  00000-0  15251-4 0  9995
2 43907  97.2834 143.7845 0023427 100.5392 259.8486 15.24237114 37235
LUME 1                  
1 43908U 18111AJ  19239.70991904  .00000650  00000-0  29169-4 0  9991
2 43908  97.2834 143.0361 0023333 103.2001 257.1842 15.24420468 37115
AOBA VELOX-IV           
1 43940U 19003J   19240.39604257  .00001035  00000-0  45345-4 0  9999
2 43940  97.2718 296.2005 0024570 178.4072 237.2899 15.23961596 33853
CATSAT-2                
1 44029U 98067PV  19240.53920249  .00010048  00000-0  14103-3 0  9994
2 44029  51.6408 356.4891 0005128  55.1157 305.0316 15.57392384 32618
DELPHINI                
1 44030U 98067PW  19240.52646392  .00008848  00000-0  12422-3 0  9996
2 44030  51.6390 356.3860 0004828  52.0268 308.1159 15.57564673 32587
UNITE                   
1 44031U 98067PX  19239.71152427  .00005645  00000-0  85470-4 0  9993
2 44031  51.6402   1.4488 0003618  48.3656 311.7645 15.56321307 32440
TECHEDSAT 8             
1 44032U 98067PY  19239.71174295  .00024279  00000-0  27676-3 0  9998
2 44032  51.6386 356.9454 0003565  38.7544 321.3706 15.62095458 32484
CATSAT-1                
1 44033U 98067PZ  19240.34639702  .00008678  00000-0  12273-3 0  9991
2 44033  51.6408 357.4521 0005032  54.7899 305.3564 15.57392238 32498
RAAVANA-1               
1 44329U 98067QE  19240.14365067  .00005745  00000-0  98985-4 0  9994
2 44329  51.6419   3.5920 0007155 348.7600  11.3229 15.52647256 11200
UGUISU                  
1 44330U 98067QF  19240.53158624  .00005508  00000-0  95327-4 0  9992
2 44330  51.6420   1.6828 0007185 348.8130  11.2699 15.52612416 11246
NEPALISAT-1             
1 44331U 98067QG  19240.14203353  .00006179  00000-0  10575-3 0  9996
2 44331  51.6419   3.5817 0007196 349.9001  10.1843 15.52682943 11190
SPOOQY-1                
1 44332U 98067QH  19239.56110041  .00005598  00000-0  96452-4 0  9995
2 44332  51.6419   6.4503 0005938 350.5265   9.5612 15.52710707 11069
SPACEBEE-9              
1 44370U 19037F   19239.59208957  .00002312  00000-0  66079-4 0  9997
2 44370  45.0155 319.2314 0016535 254.1245 105.7839 15.39493526  9106
SPACEBEE-8              
1 44371U 19037G   19239.58319105  .00003879  00000-0  10350-3 0  9994
2 44371  45.0116 319.1688 0016847 252.9072 106.9959 15.39924229  9090
MOVE-IIB                
1 44398U 19038N   19240.11855015  .00000823  00000-0  51845-4 0  9991
2 44398  97.4938 201.0180 0027271  62.9163 297.4844 15.11634050  8101
SONATE                  
1 44400U 19038Q   19239.85236936  .00000377  00000-0  25789-4 0  9991
2 44400  97.4950 200.7605 0026967  62.1945 298.2014 15.11651137  8066
LUCKY-7                 
1 44406U 19038W   19240.44152909  .00000472  00000-0  31194-4 0  9994
2 44406  97.4949 201.3533 0026443  60.2896 300.0961 15.11839072  8148
BEESAT 9                
1 44412U 19038AC  19240.44346013  .00000628  00000-0  40305-4 0  9999
2 44412  97.4948 201.3498 0024675  65.8438 294.5369 15.11792343  7846
JAISAT-1                
1 44419U 19038F   19240.16106974  .00000534  00000-0  34412-4 0  9993
2 44419  97.4949 201.1143 0023496  66.7510 293.6191 15.12286770  8117
SWIATOWID               
1 44426U 98067QL  19239.84800035  .00009517  00000-0  16109-3 0  9994
2 44426  51.6428   5.3718 0004134 305.4887  54.5717 15.52279105  8632
KRAKSAT                 
1 44427U 98067QM  19240.37458816  .00003545  00000-0  65515-4 0  9992
2 44427  51.6444   2.8075 0003301 304.8843  92.0301 15.51961901  8759
VCC A                   
1 44428U 98067QN  19239.65214802  .00005510  00000-0  96714-4 0  9996
2 44428  51.6433   6.3144 0003109 325.3314  34.7473 15.52218504  8647
ENTRYSAT                
1 44429U 98067QP  19239.90789759  .00006876  00000-0  11839-3 0  9993
2 44429  51.6430   5.0222 0002933 316.5823  43.4936 15.52311947  8689
VCC C                   
1 44430U 98067QQ  19239.65194842  .00007754  00000-0  13271-3 0  9998
2 44430  51.6429   6.3128 0003174 325.7408  34.3377 15.52274135  7478
VCC B                   
1 44431U 98067QR  19239.65316499  .00005663  00000-0  99262-4 0  9995
2 44431  51.6432   6.3209 0003255 324.0886  35.9885 15.52194732  8583
